MONITOR-4 (RS57S)       
1 57182U 23091S   25066.81316784  .00011166  00000+0  57442-3 0  9994
2 57182  97.5744 123.7927 0013626 291.7573  68.2209 15.16532975 93344
MONITOR-2 (RS39S)       
1 57184U 23091U   25066.80797247  .00006813  00000+0  39063-3 0  9994
2 57184  97.5754 123.0828 0011311 289.6163  70.3846 15.12853973 93295
SVYATOBOR 1 (RS60S)     
1 57187U 23091X   25066.84606571  .00011180  00000+0  57459-3 0  9992
2 57187  97.5749 124.5745 0010452 281.3604  78.6455 15.16599961 93396
VIZARD-METEO (RS38S)    
1 57189U 23091Z   25066.78656870  .00014793  00000+0  68445-3 0  9994
2 57189  97.5737 125.8168 0009134 274.4583  85.5608 15.20205391 93474
NANOZOND 1 (RS49S)      
1 57190U 23091AA  25066.83280240  .00029471  00000+0  10511-2 0  9995
2 57190  97.5696 128.2981 0006983 268.3636  91.6804 15.28826741 93652
POLYTECH-UNIVERSE 3 (R*)
1 57191U 23091AB  25066.81201546  .00006954  00000+0  39740-3 0  9993
2 57191  97.5723 122.6605 0016320 307.1336  52.8403 15.12905266 93286
UTMN 2 (RS27S)          
1 57203U 23091AP  25066.79569083  .00012407  00000+0  59776-3 0  9998
2 57203  97.5739 125.3399 0009538 276.4254  83.5894 15.18842901 93442
ARCCUBE 1 (RS25S)       
1 57205U 23091AR  25066.78520523  .00043162  00000+0  12898-2 0  9990
2 57205  97.5627 129.3450 0006893 264.4257  95.6199 15.34439273 93739
KUZGTU 1 (RS47S)        
1 57217U 23091AV  25066.87235184  .00011793  00000+0  59286-3 0  9997
2 57217  97.5729 124.0677 0013103 290.8513  69.1316 15.17335357 93374
SONATE-2                
1 59112U 24043Q   25066.34906175  .00020708  00000+0  69169-3 0  9995
2 59112  97.4985 196.0175 0012157  90.6823 269.5810 15.30985877 55896
MESAT1                  
1 60209U 24125G   25066.38155875  .00020685  00000+0  68104-3 0  9994
2 60209  97.2929 279.2658 0021937 113.4771 246.8779 15.31282194 37517
OOV-CUBE (TUBSAT-30)    
1 60240U 24128F   25066.66246036  .00005018  00000+0  41767-3 0  9992
2 60240  61.9970  48.3767 0041882  32.6186 327.7478 14.99312222 36079
COLIBRI-S (RS67S)       
1 61746U 24199M   25066.88322314  .00016831  00000+0  59858-3 0  9995
2 61746  97.3732 296.2295 0013884 150.6907 209.5115 15.28964132 65751
HORS 3 (RS81S)          
1 61753U 24199U   25066.80502155  .00020232  00000+0  70631-3 0  9990
2 61753  97.3703 296.1383 0011983 157.2453 202.9321 15.29554958 65748
HORS 4 (RS82S)          
1 61754U 24199V   25066.78246043  .00022454  00000+0  77139-3 0  9997
2 61754  97.3700 296.1651 0012042 157.4135 202.7638 15.30056459 65744
HORIZON (RS59S)         
1 61757U 24199Y   25066.78830824  .00028885  00000+0  94580-3 0  9999
2 61757  97.3726 296.3504 0013098 148.2886 211.9147 15.31545524 65752
SIT-2086                
1 61764U 24199AF  25066.86204339  .00023219  00000+0  77894-3 0  9997
2 61764  97.3704 296.3663 0010467 156.4667 203.7055 15.30837538 62603
MORDOVIA-IOT (RS50S)    
1 61765U 24199AG  25066.89466733  .00034611  00000+0  10638-2 0  9999
2 61765  97.3721 296.6619 0012709 143.7264 216.4843 15.33537807 62638
RUZAEVKA 390 (RS44S)    
1 61766U 24199AH  25066.84817220  .00032483  00000+0  10172-2 0  9994
2 61766  97.3719 296.5683 0012673 143.8178 216.3924 15.32957641 62620
HYPERVIEW 1G (RS66S)    
1 61772U 24199AP  25066.88442349  .00024460  00000+0  84016-3 0  9996
2 61772  97.3700 296.1806 0015556 162.0416 198.1377 15.29997597 62608
ALTAIR (RS65S)          
1 61779U 24199AW  25066.88815439  .00010804  00000+0  41458-3 0  9997
2 61779  97.3720 295.8886 0016685 163.8194 196.3581 15.26523247 65735
ASRTU-1 (AO-123)        
1 61781U 24199AY  25066.77241485  .00011094  00000+0  42843-3 0  9993
2 61781  97.3707 295.7352 0016815 164.5800 195.5954 15.26299789 62561
TUSUR GO (RS78S)        
1 61782U 24199AZ  25066.90456852  .00028355  00000+0  96885-3 0  9998
2 61782  97.3700 296.1558 0016363 161.8124 198.3705 15.30125174 62606
SAMSAT-IONOSPHERE (RS7*)
1 61784U 24199BB  25066.87628617  .00020293  00000+0  72312-3 0  9998
2 61784  97.3706 296.0462 0016633 162.8747 197.3057 15.28820589 65745
RTU MIREA 1 (RS51S)     
1 61785U 24199BC  25066.86894190  .00021665  00000+0  76678-3 0  9992
2 61785  97.3705 296.0555 0016508 162.3171 197.8647 15.29031117 62597
HADES-R                 
1 62690U 25009CK  25066.65489536  .00037219  00000+0  17255-2 0  9997
2 62690  97.4169 148.3751 0002416  77.6604 282.4901 15.19964967  7834
